     2.100          NAVIGATION                              RINEX VERSION / TYPE
fic2rin                                 07/31/2009 01:43:00 PGM / RUN BY / DATE
                                                            END OF HEADER
19 09  7 30 14  0  0.0  .171242281795D-04 -.147792889038D-11  .000000000000D+00
     .150000000000D+02 -.534375000000D+01  .461554939902D-08 -.230409400283D+01
    -.234693288803D-06  .577651464846D-02  .737607479095D-05  .515363110352D+04
     .396000000000D+06 -.931322574615D-07 -.249860754199D+01  .186264514923D-07
     .957589702678D+00  .237218750000D+03 -.308135644869D+00 -.796997483859D-08
    -.125005206969D-10  .100000000000D+01  .154200000000D+04  .000000000000D+00
     .240000000000D+01  .000000000000D+00 -.144354999065D-07  .150000000000D+02
     .388806000000D+06  .400000000000D+01
20 09  7 30 14  0  0.0  .760043039918D-04 -.102318153949D-11  .000000000000D+00
     .200000000000D+02  .776562500000D+02  .494663461862D-08 -.182018960655D+00
     .383518636227D-05  .382879842073D-02  .643543899059D-05  .515356560516D+04
     .396000000000D+06 -.279396772385D-07 -.503500233697D+00  .707805156708D-07
     .941208497546D+00  .250843750000D+03  .136149704535D+01 -.830356016232D-08
     .607168148133D-10  .100000000000D+01  .154200000000D+04  .000000000000D+00
     .240000000000D+01  .630000000000D+02 -.651925802231D-08  .200000000000D+02
     .388806000000D+06  .400000000000D+01
21 09  7 30 14  0  0.0 -.246800482273D-06 -.216004991671D-11  .000000000000D+00
     .730000000000D+02  .294062500000D+02  .500592280249D-08  .913469146708D+00
     .168569386005D-05  .154795550043D-01  .869296491146D-05  .515376663399D+04
     .396000000000D+06 -.288709998131D-06 -.150796429226D+01  .219792127609D-06
     .933365016914D+00  .199281250000D+03 -.257048347214D+01 -.824034324337D-08
    -.403231081907D-09  .100000000000D+01  .154200000000D+04  .000000000000D+00
     .240000000000D+01  .000000000000D+00 -.121071934700D-07  .730000000000D+02
     .388806000000D+06  .400000000000D+01
22 09  7 30 14  0  0.0  .194361433387D-03 -.682121026330D-12  .000000000000D+00
     .250000000000D+02  .814062500000D+02  .493627704432D-08 -.138574820115D+01
     .444985926151D-05  .522610743064D-02  .630132853985D-05  .515366110611D+04
     .396000000000D+06  .409781932831D-07 -.444092675340D+00  .113621354103D-06
     .939227756206D+00  .245000000000D+03 -.189515184326D+01 -.824891502899D-08
     .105361531588D-09  .100000000000D+01  .154200000000D+04  .000000000000D+00
     .240000000000D+01  .000000000000D+00 -.176951289177D-07  .250000000000D+02
     .388806000000D+06  .400000000000D+01
23 09  7 30 14  0  0.0  .389821827412D-03 -.227373675443D-12  .000000000000D+00
     .250000000000D+02  .484375000000D+01  .449625871579D-08 -.282907896889D+01
     .435858964920D-06  .638017908204D-02  .373274087906D-05  .515358857155D+04
     .396000000000D+06 -.111758708954D-06  .574890567208D+00 -.186264514923D-07
     .970244814500D+00  .316156250000D+03  .292619213185D+01 -.806283584948D-08
     .664313385605D-10  .100000000000D+01  .154200000000D+04  .000000000000D+00
     .240000000000D+01  .000000000000D+00 -.200234353542D-07  .250000000000D+02
     .388806000000D+06  .400000000000D+01
24 09  7 30 14  0  0.0  .208439771086D-03  .295585778076D-11  .000000000000D+00
     .530000000000D+02  .292500000000D+02  .462519265784D-08 -.447077022370D+00
     .143051147461D-05  .660743389744D-02  .875815749168D-05  .515367261696D+04
     .396000000000D+06 -.726431608200D-07 -.147472591868D+01 -.188127160072D-06
     .949993857503D+00  .202906250000D+03 -.646605374486D+00 -.803247744207D-08
    -.216437586923D-09  .100000000000D+01  .154200000000D+04  .000000000000D+00
     .240000000000D+01  .000000000000D+00 -.139698386192D-08  .530000000000D+02
     .388806000000D+06  .400000000000D+01
25 09  7 30 14  0  0.0  .531449913979D-03  .165982783074D-10  .000000000000D+00
     .390000000000D+02 -.727500000000D+02  .447661504041D-08  .618155449227D-01
    -.375509262085D-05  .112608049531D-01  .625476241112D-05  .515364988899D+04
     .396000000000D+06 -.800937414169D-07  .152249249221D+01 -.577419996262D-07
     .970185512189D+00  .267250000000D+03 -.121053902614D+01 -.828427364468D-08
    -.264296723305D-10  .100000000000D+01  .154200000000D+04  .000000000000D+00
     .240000000000D+01  .000000000000D+00 -.745058059692D-08  .390000000000D+02
     .388806000000D+06  .400000000000D+01
27 09  7 30 14  0  0.0  .699916854501D-04  .318323145621D-11  .000000000000D+00
     .910000000000D+02 -.830312500000D+02  .411302846700D-08 -.203834233947D+01
    -.394321978092D-05  .213044399861D-01  .562705099583D-05  .515376481056D+04
     .396000000000D+06  .288709998131D-06  .155911054888D+01  .262632966042D-06
     .974931240382D+00  .271875000000D+03 -.156637759590D+01 -.761245994666D-08
     .307155651409D-10  .100000000000D+01  .154200000000D+04  .000000000000D+00
     .240000000000D+01  .000000000000D+00 -.419095158577D-08  .910000000000D+02
     .388806000000D+06  .400000000000D+01
28 09  7 30 14  0  0.0 -.260788947344D-04 -.113686837722D-12  .000000000000D+00
     .260000000000D+02 -.371562500000D+02  .439768318116D-08 -.114404286897D+01
    -.194646418095D-05  .149793670280D-01  .831671059132D-05  .515364804649D+04
     .396000000000D+06  .141561031342D-06  .269472633092D+01  .404193997383D-06
     .967486306911D+00  .222843750000D+03 -.202132990860D+01 -.792783022595D-08
     .975040614355D-10  .100000000000D+01  .154200000000D+04  .000000000000D+00
     .240000000000D+01  .000000000000D+00 -.107102096081D-07  .260000000000D+02
     .388806000000D+06  .400000000000D+01
29 09  7 30 14  0  0.0  .441647134721D-04  .352429196937D-11  .000000000000D+00
     .710000000000D+02 -.728125000000D+01  .468198073758D-08  .901660027245D+00
    -.532716512680D-06  .328480557073D-02  .701658427715D-05  .515363175011D+04
     .396000000000D+06  .372529029846D-08 -.254626197261D+01 -.670552253723D-07
     .960166450010D+00  .246062500000D+03 -.129161708259D+01 -.802354849872D-08
    -.764317551180D-10  .100000000000D+01  .154200000000D+04  .000000000000D+00
     .240000000000D+01  .000000000000D+00 -.884756445885D-08  .710000000000D+02
     .388806000000D+06  .400000000000D+01
30 09  7 30 14  0  0.0  .164911150932D-03  .284217094304D-11  .000000000000D+00
     .220000000000D+02 -.394375000000D+02  .477734185261D-08 -.639099016011D+00
    -.199675559998D-05  .117085571401D-01  .814720988274D-05  .515356445122D+04
     .396000000000D+06 -.126659870148D-06  .262080538320D+01  .763684511185D-07
     .952929888738D+00  .217343750000D+03  .143325553097D+01 -.824462913618D-08
     .167149819604D-09  .100000000000D+01  .154200000000D+04  .000000000000D+00
     .240000000000D+01  .000000000000D+00 -.838190317154D-08  .220000000000D+02
     .388806000000D+06  .400000000000D+01
31 09  7 30 14  0  0.0 -.643888488412D-04 -.341060513165D-12  .000000000000D+00
     .870000000000D+02 -.685312500000D+02  .420624663563D-08  .167565692835D+01
    -.368617475033D-05  .698317529168D-02  .585243105888D-05  .515376243210D+04
     .396000000000D+06  .108033418655D-06  .161509410651D+01 -.745058059692D-07
     .973342566939D+00  .269218750000D+03 -.113825616338D+01 -.786604193793D-08
    -.121790787361D-09  .100000000000D+01  .154200000000D+04  .000000000000D+00
     .240000000000D+01  .000000000000D+00 -.130385160446D-07  .870000000000D+02
     .388806000000D+06  .400000000000D+01
32 09  7 30 14  0  0.0  .223535113037D-03 -.636646291241D-11  .000000000000D+00
     .950000000000D+02  .845312500000D+02  .435768151493D-08  .260641190484D+01
     .409036874771D-05  .132381861331D-01  .590831041336D-05  .515376726913D+04
     .396000000000D+06  .223517417908D-06 -.392634872761D+00  .763684511185D-07
     .963280980657D+00  .265187500000D+03 -.113773575661D+01 -.782246869436D-08
    -.114290474943D-10  .100000000000D+01  .154200000000D+04  .000000000000D+00
     .240000000000D+01  .000000000000D+00 -.325962901115D-08  .950000000000D+02
     .388806000000D+06  .400000000000D+01
21 09  7 30 13 59 44.0 -.246334820986D-06 -.216004991671D-11  .000000000000D+00
     .600000000000D+01  .294062500000D+02  .500592280249D-08  .911135700208D+00
     .168569386005D-05  .154795538401D-01  .869296491146D-05  .515376662827D+04
     .395984000000D+06 -.288709998131D-06 -.150796411671D+01  .219792127609D-06
     .933365012525D+00  .199281250000D+03 -.257048362282D+01 -.824034324337D-08
    -.403231081907D-09  .100000000000D+01  .154200000000D+04  .000000000000D+00
     .240000000000D+01  .000000000000D+00 -.121071934700D-07  .600000000000D+01
     .389736000000D+06  .400000000000D+01
 1 09  7 30 13 59 44.0 -.614314340055D-04  .250111042988D-11  .000000000000D+00
     .000000000000D+00 -.411562500000D+02  .579738434147D-08 -.224789152536D+00
    -.214762985706D-05  .365872902330D-02  .798888504505D-05  .515373778152D+04
     .395984000000D+06  .931322574615D-08  .265707603779D+01  .204890966415D-07
     .961737686932D+00  .222187500000D+03  .941726592910D+00 -.797818946647D-08
     .131076888450D-09  .100000000000D+01  .154200000000D+04  .000000000000D+00
     .240000000000D+01  .630000000000D+02 -.130385160446D-07  .000000000000D+00
     .391956000000D+06  .400000000000D+01
12 09  7 30 13 59 44.0 -.242382287979D-03  .602540239925D-11  .000000000000D+00
     .900000000000D+01 -.419375000000D+02  .435982446133D-08  .185713912096D+01
    -.208988785744D-05  .319540454075D-02  .803545117378D-05  .515360877991D+04
     .395984000000D+06  .763684511185D-07  .266958485780D+01  .242143869400D-07
     .967859118417D+00  .225281250000D+03 -.628550972894D+00 -.779175312922D-08
     .126433837905D-09  .100000000000D+01  .154200000000D+04  .000000000000D+00
     .240000000000D+01  .000000000000D+00 -.116415321827D-07  .900000000000D+01
     .394536000000D+06  .400000000000D+01
